{"SrchResults": [
    {
        "Owner": "NATIONAL ENVIRONMENT AGENCY",
        "Category": "Environment",
        "Theme_Name": "Supermarkets",
        "FeatCount": 76,
        "DateTime": {
            "date": "2019-01-25 08:29:48.000000",
            "timezone": "+00:00",
            "timezone_type": 1
        }
    },
    {
        "STR_NAME": "UPPER BOON KENG ROAD",
        "DESCRIPTION": "E73010V000",
        "POSTCODE": "380011",
        "ICON_NAME": "supermarketlogo.jpg",
        "BLK_HOUSE": "11",
        "UNIT_NO": "901",
        "LatLng": "1.31423937057047,103.870914035563",
        "NAME": "SHENG SIONG SUPERMARKET PTE LTD"
    },
    {
        "STR_NAME": "BUKIT TIMAH ROAD",
        "DESCRIPTION": "W02430L000",
        "POSTCODE": "259760",
        "ICON_NAME": "supermarketlogo.jpg",
        "BLK_HOUSE": "501",
        "UNIT_NO": "05B",
        "LatLng": "1.32257317593847,103.814245545298",
        "NAME": "THE FISHWIVES PTE. LTD."
    },
    {
        "STR_NAME": "THOMSON ROAD",
        "DESCRIPTION": "W02074L000",
        "POSTCODE": "307683",
        "ICON_NAME": "supermarketlogo.jpg",
        "BLK_HOUSE": "238",
        "UNIT_NO": "28/29",
        "LatLng": "1.32021101601675,103.843656771807",
        "NAME": "COLD STORAGE SINGAPORE (1983) PTE LTD"
    },
    {
        "STR_NAME": "JALAN BERSEH",
        "DESCRIPTION": "CE12096L000",
        "POSTCODE": "209037",
        "ICON_NAME": "supermarketlogo.jpg",
        "BLK_HOUSE": "1",
        "UNIT_NO": "3/22",
        "LatLng": "1.30778510070706,103.857010987509",
        "NAME": "SHENG SIONG SUPERMARKET PTE LTD"
    },
    {
        "STR_NAME": "TANGLIN ROAD",
        "DESCRIPTION": "W02073N000",
        "POSTCODE": "247933",
        "ICON_NAME": "supermarketlogo.jpg",
        "BLK_HOUSE": "163",
        "UNIT_NO": "2/3",
        "LatLng": "1.30484344487426,103.823852799187",
        "NAME": "COLD STORAGE SINGAPORE (1983) PTE LTD"
    },
    {
        "STR_NAME": "DEMPSEY ROAD",
        "DESCRIPTION": "CE18D64L000",
        "POSTCODE": "249672",
        "ICON_NAME": "supermarketlogo.jpg",
        "BLK_HOUSE": "8D",
        "UNIT_NO": "1",
        "LatLng": "1.30344597442988,103.80938167216",
        "NAME": "BLUEWATER SEAFOOD PTE. LTD."
    },
    {
        "STR_NAME": "ST. MARTIN'S DRIVE",
        "DESCRIPTION": "CE18G34E000",
        "POSTCODE": "257988",
        "ICON_NAME": "supermarketlogo.jpg",
        "BLK_HOUSE": "1",
        "UNIT_NO": "1",
        "LatLng": "1.30570970646179,103.824463823195",
        "NAME": "WONS BUTCHERY PTE. LTD."
    },
    {
        "STR_NAME": "LORONG LIPUT",
        "DESCRIPTION": "CE18I13C000",
        "POSTCODE": "277725",
        "ICON_NAME": "supermarketlogo.jpg",
        "BLK_HOUSE": "3",
        "UNIT_NO": "4",
        "LatLng": "1.31064350283582,103.795246166645",
        "NAME": "LITTLE FARMS PTE. LTD."
    },
    {
        "STR_NAME": "KALLANG AVENUE",
        "DESCRIPTION": "CE14G73B000",
        "POSTCODE": "339511",
        "ICON_NAME": "supermarketlogo.jpg",
        "BLK_HOUSE": "12",
        "UNIT_NO": "47",
        "LatLng": "1.30974242012866,103.864101650514",
        "NAME": "COLD STORAGE SINGAPORE (1983) PTE LTD"
    },
    {
        "STR_NAME": "VISTA EXCHANGE GREEN",
        "DESCRIPTION": "SW12J97L000",
        "POSTCODE": "138617",
        "ICON_NAME": "supermarketlogo.jpg",
        "BLK_HOUSE": "1",
        "LatLng": "1.30684882667818,103.788214538525",
        "NAME": "COLD STORAGE SINGAPORE (1983) PTE LTD"
    },
    {
        "STR_NAME": "SYED ALWI ROAD",
        "DESCRIPTION": "W03142N000",
        "POSTCODE": "207706",
        "ICON_NAME": "supermarketlogo.jpg",
        "BLK_HOUSE": "147",
        "LatLng": "1.30975274714546,103.855701594507",
        "NAME": "MUSTAFA HOLDINGS PTE LTD"
    },
    {
        "STR_NAME": "ORCHARD ROAD",
        "DESCRIPTION": "CE13539N000",
        "POSTCODE": "238884",
        "ICON_NAME": "supermarketlogo.jpg",
        "BLK_HOUSE": "583",
        "LatLng": "1.30619579913532,103.828509016301",
        "NAME": "SUPERNATURE PTE LTD"
    },
    {
        "STR_NAME": "DEMPSEY ROAD",
        "DESCRIPTION": "CE15F60K000",
        "POSTCODE": "249679",
        "ICON_NAME": "supermarketlogo.jpg",
        "BLK_HOUSE": "22",
        "LatLng": "1.30679240718754,103.810185824202",
        "NAME": "HUBER'S PTE. LTD."
    },
    {
        "STR_NAME": "BUKIT TIMAH ROAD",
        "DESCRIPTION": "C00033N000",
        "POSTCODE": "269716",
        "ICON_NAME": "supermarketlogo.jpg",
        "BLK_HOUSE": "615",
        "LatLng": "1.32437350966463,103.809357938829",
        "NAME": "MEAT THE BUTCHER PTE. LTD."
    },
    {
        "STR_NAME": "HOLLAND ROAD",
        "DESCRIPTION": "C02025V000",
        "POSTCODE": "278628",
        "ICON_NAME": "supermarketlogo.jpg",
        "BLK_HOUSE": "293",
        "LatLng": "1.31756196835644,103.785840623813",
        "NAME": "COLD STORAGE SINGAPORE (1983) PTE LTD"
    },
    {
        "STR_NAME": "FUSIONOPOLIS WAY",
        "DESCRIPTION": "SW17E56V000",
        "POSTCODE": "138632",
        "ICON_NAME": "supermarketlogo.jpg",
        "BLK_HOUSE": "1",
        "UNIT_NO": "3",
        "LatLng": "1.29929406658312,103.787404060028",
        "NAME": "COLD STORAGE SINGAPORE (1983) PTE LTD"
    },
    {
        "STR_NAME": "JALAN TENTERAM",
        "DESCRIPTION": "CE17M26A000",
        "POSTCODE": "321017",
        "ICON_NAME": "supermarketlogo.jpg",
        "BLK_HOUSE": "17",
        "UNIT_NO": "128",
        "LatLng": "1.3282116947432,103.859812582011",
        "NAME": "HAO MART PTE. LTD."
    },
    {
        "STR_NAME": "ORCHARD ROAD",
        "DESCRIPTION": "CE17L45A000",
        "POSTCODE": "238896",
        "ICON_NAME": "supermarketlogo.jpg",
        "BLK_HOUSE": "181",
        "UNIT_NO": "1/3",
        "LatLng": "1.3008389164153,103.839434735426",
        "NAME": "PAN PACIFIC INTERNATIONAL HOLDINGS PTE. LTD."
    },
    {
        "STR_NAME": "KING GEORGE'S AVENUE",
        "DESCRIPTION": "E02042P000",
        "POSTCODE": "200803",
        "ICON_NAME": "supermarketlogo.jpg",
        "BLK_HOUSE": "803",
        "UNIT_NO": "154",
        "LatLng": "1.3083652684116,103.860912787999",
        "NAME": "PRIME SUPERMARKET LIMITED"
    },
    {
        "STR_NAME": "VICTORIA STREET",
        "DESCRIPTION": "W02075K000",
        "POSTCODE": "188024",
        "ICON_NAME": "supermarketlogo.jpg",
        "BLK_HOUSE": "230",
        "UNIT_NO": "16",
        "LatLng": "1.30014248326866,103.855786976518",
        "NAME": "COLD STORAGE SINGAPORE (1983) PTE LTD"
    },
    {
        "STR_NAME": "ORCHARD ROAD",
        "DESCRIPTION": "CE16I13V000",
        "POSTCODE": "238839",
        "ICON_NAME": "supermarketlogo.jpg",
        "BLK_HOUSE": "68",
        "UNIT_NO": "17",
        "LatLng": "1.30074756196423,103.845047628503",
        "NAME": "IROHA INTERNATIONAL PTE. LTD."
    },
    {
        "STR_NAME": "CLEMENCEAU AVENUE",
        "DESCRIPTION": "W02096A000",
        "POSTCODE": "239917",
        "ICON_NAME": "supermarketlogo.jpg",
        "BLK_HOUSE": "81",
        "UNIT_NO": "18",
        "LatLng": "1.29225958853816,103.842561031003",
        "NAME": "COLD STORAGE SINGAPORE (1983) PTE LTD"
    },
    {
        "STR_NAME": "RIVER VALLEY ROAD",
        "DESCRIPTION": "CE05380X000",
        "POSTCODE": "248371",
        "ICON_NAME": "supermarketlogo.jpg",
        "BLK_HOUSE": "491",
        "UNIT_NO": "20",
        "LatLng": "1.29301786111443,103.826940812301",
        "NAME": "LITTLE FARMS PTE. LTD."
    },
    {
        "STR_NAME": "JALAN MERAH SAGA",
        "DESCRIPTION": "B03074A000",
        "POSTCODE": "278116",
        "ICON_NAME": "supermarketlogo.jpg",
        "BLK_HOUSE": "44",
        "UNIT_NO": "50",
        "LatLng": "1.3119219563809,103.796844046992",
        "NAME": "THE BUTCHER (SINGAPORE) PTE. LTD."
    },
    {
        "STR_NAME": "ORCHARD ROAD",
        "DESCRIPTION": "W02070V000",
        "POSTCODE": "238859",
        "ICON_NAME": "supermarketlogo.jpg",
        "BLK_HOUSE": "290",
        "UNIT_NO": "14/15",
        "LatLng": "1.30372322367268,103.835240311923",
        "NAME": "COLD STORAGE SINGAPORE (1983) PTE LTD"
    },
    {
        "STR_NAME": "ORCHARD ROAD",
        "DESCRIPTION": "W02088A000",
        "POSTCODE": "238839",
        "ICON_NAME": "supermarketlogo.jpg",
        "BLK_HOUSE": "68",
        "UNIT_NO": "15/16",
        "LatLng": "1.30074756196423,103.845047628503",
        "NAME": "COLD STORAGE SINGAPORE (1983) PTE LTD"
    },
    {
        "STR_NAME": "KIM SENG PROMENADE",
        "DESCRIPTION": "W02068J000",
        "POSTCODE": "237994",
        "ICON_NAME": "supermarketlogo.jpg",
        "BLK_HOUSE": "1",
        "UNIT_NO": "18/19",
        "LatLng": "1.29380236091495,103.831757911005",
        "NAME": "COLD STORAGE SINGAPORE (1983) PTE LTD"
    },
    {
        "STR_NAME": "BUKIT TIMAH ROAD",
        "DESCRIPTION": "CE10B87J000",
        "POSTCODE": "259727",
        "ICON_NAME": "supermarketlogo.jpg",
        "BLK_HOUSE": "383",
        "UNIT_NO": "09A",
        "LatLng": "1.31943617521461,103.82734585139",
        "NAME": "COLD STORAGE SINGAPORE (1983) PTE LTD"
    },
    {
        "STR_NAME": "DOVER CRESCENT",
        "DESCRIPTION": "SW07481A000",
        "POSTCODE": "130028",
        "ICON_NAME": "supermarketlogo.jpg",
        "BLK_HOUSE": "28",
        "UNIT_NO": "83",
        "LatLng": "1.30476357340306,103.781697201377",
        "NAME": "NTUC FAIRPRICE CO-OPERATIVE LTD"
    },
    {
        "STR_NAME": "LOWER KENT RIDGE ROAD",
        "DESCRIPTION": "SW13245V000",
        "POSTCODE": "119082",
        "ICON_NAME": "supermarketlogo.jpg",
        "BLK_HOUSE": "1",
        "UNIT_NO": "16",
        "LatLng": "1.29277432695785,103.784084020187",
        "NAME": "NTUC FAIRPRICE CO-OPERATIVE LTD"
    },
    {
        "STR_NAME": "BALESTIER ROAD",
        "DESCRIPTION": "W02084J000",
        "POSTCODE": "329783",
        "ICON_NAME": "supermarketlogo.jpg",
        "BLK_HOUSE": "360",
        "UNIT_NO": "0",
        "LatLng": "1.32512653292631,103.851055636335",
        "NAME": "NTUC FAIRPRICE CO-OPERATIVE LTD"
    },
    {
        "STR_NAME": "KILLINEY ROAD",
        "DESCRIPTION": "W02239E000",
        "POSTCODE": "239571",
        "ICON_NAME": "supermarketlogo.jpg",
        "BLK_HOUSE": "131",
        "UNIT_NO": "01,02",
        "LatLng": "1.29727532047679,103.838533933775",
        "NAME": "NTUC FAIRPRICE CO-OPERATIVE LTD"
    },
    {
        "STR_NAME": "BUKIT TIMAH ROAD",
        "DESCRIPTION": "C02034X000",
        "POSTCODE": "269707",
        "ICON_NAME": "supermarketlogo.jpg",
        "BLK_HOUSE": "587",
        "LatLng": "1.32383512680832,103.809999578549",
        "NAME": "NTUC FAIRPRICE CO-OPERATIVE LTD"
    },
    {
        "STR_NAME": "DAWSON ROAD",
        "DESCRIPTION": "CE04086K000",
        "POSTCODE": "142057",
        "ICON_NAME": "supermarketlogo.jpg",
        "BLK_HOUSE": "57",
        "UNIT_NO": "1",
        "LatLng": "1.29270339832466,103.810958960395",
        "NAME": "NTUC FAIRPRICE CO-OPERATIVE LTD"
    },
    {
        "STR_NAME": "KALLANG BAHRU",
        "DESCRIPTION": "CE05295K000",
        "POSTCODE": "330071",
        "ICON_NAME": "supermarketlogo.jpg",
        "BLK_HOUSE": "71",
        "UNIT_NO": "531",
        "LatLng": "1.32099294995032,103.870389995935",
        "NAME": "NTUC FAIRPRICE CO-OPERATIVE LTD"
    },
    {
        "STR_NAME": "RIVER VALLEY ROAD",
        "DESCRIPTION": "CE06044N000",
        "POSTCODE": "248371",
        "ICON_NAME": "supermarketlogo.jpg",
        "BLK_HOUSE": "491",
        "UNIT_NO": "14",
        "LatLng": "1.29301786111443,103.826940812301",
        "NAME": "NTUC FAIRPRICE CO-OPERATIVE LTD"
    },
    {
        "STR_NAME": "SINARAN DRIVE",
        "DESCRIPTION": "CE06L48L000",
        "POSTCODE": "307506",
        "ICON_NAME": "supermarketlogo.jpg",
        "BLK_HOUSE": "10",
        "UNIT_NO": "47/48",
        "LatLng": "1.32042967863542,103.843892126913",
        "NAME": "NTUC FAIRPRICE CO-OPERATIVE LTD"
    },
    {
        "STR_NAME": "CAMBRIDGE ROAD",
        "DESCRIPTION": "CE07320C000",
        "POSTCODE": "210043",
        "ICON_NAME": "supermarketlogo.jpg",
        "BLK_HOUSE": "43",
        "UNIT_NO": "15",
        "LatLng": "1.31536303357228,103.849434508531",
        "NAME": "NTUC FAIRPRICE CO-OPERATIVE LTD"
    },
    {
        "STR_NAME": "UPPER BOON KENG ROAD",
        "DESCRIPTION": "CE07D83B000",
        "POSTCODE": "380005",
        "ICON_NAME": "supermarketlogo.jpg",
        "BLK_HOUSE": "5",
        "UNIT_NO": "5",
        "LatLng": "1.31265450087908,103.87254179955",
        "NAME": "NTUC FAIRPRICE CO-OPERATIVE LTD"
    },
    {
        "STR_NAME": "LORONG LIMAU",
        "DESCRIPTION": "CE08H32N000",
        "POSTCODE": "320080",
        "ICON_NAME": "supermarketlogo.jpg",
        "BLK_HOUSE": "80",
        "UNIT_NO": "191",
        "LatLng": "1.32379607925067,103.855670628839",
        "NAME": "NTUC FAIRPRICE CO-OPERATIVE LTD"
    },
    {
        "STR_NAME": "KITCHENER ROAD",
        "DESCRIPTION": "CE09H10X000",
        "POSTCODE": "208539",
        "ICON_NAME": "supermarketlogo.jpg",
        "BLK_HOUSE": "180",
        "UNIT_NO": "9/10",
        "LatLng": "1.31139349438913,103.856487121487",
        "NAME": "NTUC FAIRPRICE CO-OPERATIVE LTD"
    },
    {
        "STR_NAME": "WATERLOO STREET",
        "DESCRIPTION": "CE11H82X000",
        "POSTCODE": "187950",
        "ICON_NAME": "supermarketlogo.jpg",
        "BLK_HOUSE": "24",
        "UNIT_NO": "1",
        "LatLng": "1.29827328917638,103.850599507143",
        "NAME": "JEWISH WELFARE BOARD, SINGAPORE, THE"
    },
    {
        "STR_NAME": "SCOTTS ROAD",
        "DESCRIPTION": "CE11M39P000",
        "POSTCODE": "228209",
        "ICON_NAME": "supermarketlogo.jpg",
        "BLK_HOUSE": "6",
        "LatLng": "1.30585583497043,103.832984361905",
        "NAME": "NTUC FAIRPRICE CO-OPERATIVE LTD"
    },
    {
        "STR_NAME": "AH HOOD ROAD",
        "DESCRIPTION": "CE13O90C000",
        "POSTCODE": "329984",
        "ICON_NAME": "supermarketlogo.jpg",
        "BLK_HOUSE": "20",
        "UNIT_NO": "1",
        "LatLng": "1.3270848591504,103.846476465683",
        "NAME": "NTUC FAIRPRICE CO-OPERATIVE LTD"
    },
    {
        "STR_NAME": "TEMASEK BOULEVARD",
        "DESCRIPTION": "CE13Z03L000",
        "POSTCODE": "38983",
        "ICON_NAME": "supermarketlogo.jpg",
        "BLK_HOUSE": "3",
        "LatLng": "1.29487905112125,103.857675501543",
        "NAME": "COLD STORAGE SINGAPORE (1983) PTE LTD"
    },
    {
        "STR_NAME": "FRENCH ROAD",
        "DESCRIPTION": "CE13Z98K000",
        "POSTCODE": "200808",
        "ICON_NAME": "supermarketlogo.jpg",
        "BLK_HOUSE": "808",
        "UNIT_NO": "1",
        "LatLng": "1.30880609469533,103.861311961994",
        "NAME": "NTUC FAIRPRICE CO-OPERATIVE LTD"
    },
    {
        "STR_NAME": "BENDEMEER ROAD",
        "DESCRIPTION": "CE17K55B000",
        "POSTCODE": "330030",
        "ICON_NAME": "supermarketlogo.jpg",
        "BLK_HOUSE": "30",
        "UNIT_NO": "871",
        "LatLng": "1.31909344185792,103.86390532629",
        "NAME": "NTUC FAIRPRICE CO-OPERATIVE LTD"
    },
    {
        "STR_NAME": "TEMASEK BOULEVARD",
        "DESCRIPTION": "CE17P14L000",
        "POSTCODE": "38983",
        "ICON_NAME": "supermarketlogo.jpg",
        "BLK_HOUSE": "3",
        "UNIT_NO": "616",
        "LatLng": "1.29487905112125,103.857675501543",
        "NAME": "SF (313) PTE. LTD."
    },
    {
        "STR_NAME": "KITCHENER ROAD",
        "DESCRIPTION": "CE18T88K000",
        "POSTCODE": "208539",
        "ICON_NAME": "supermarketlogo.jpg",
        "BLK_HOUSE": "180",
        "UNIT_NO": "6",
        "LatLng": "1.31139349438913,103.856487121487",
        "NAME": "PAN PACIFIC INTERNATIONAL HOLDINGS PTE. LTD."
    },
    {
        "STR_NAME": "HOLLAND DRIVE",
        "DESCRIPTION": "NW08477X000",
        "POSTCODE": "270036",
        "ICON_NAME": "supermarketlogo.jpg",
        "BLK_HOUSE": "36",
        "UNIT_NO": "3",
        "LatLng": "1.30918211194726,103.79254748678",
        "NAME": "NTUC FAIRPRICE CO-OPERATIVE LTD"
    },
    {
        "STR_NAME": "GHIM MOH LINK",
        "DESCRIPTION": "NW18091N000",
        "POSTCODE": "271029",
        "ICON_NAME": "supermarketlogo.jpg",
        "BLK_HOUSE": "29A",
        "UNIT_NO": "1",
        "LatLng": "1.3084928850612,103.784598109774",
        "NAME": "NTUC FAIRPRICE CO-OPERATIVE LTD"
    },
    {
        "STR_NAME": "TANGLIN HALT ROAD",
        "DESCRIPTION": "CE07783P000",
        "POSTCODE": "141088",
        "ICON_NAME": "supermarketlogo.jpg",
        "BLK_HOUSE": "88",
        "UNIT_NO": "10",
        "LatLng": "1.30203802909961,103.798021747973",
        "NAME": "SHENG SIONG SUPERMARKET PTE LTD"
    },
    {
        "STR_NAME": "DEMPSEY ROAD",
        "DESCRIPTION": "CE07411A000",
        "POSTCODE": "247696",
        "ICON_NAME": "supermarketlogo.jpg",
        "BLK_HOUSE": "8",
        "UNIT_NO": "13",
        "LatLng": "1.30417511894087,103.809526142547",
        "NAME": "CULINA PTE LTD"
    },
    {
        "STR_NAME": "VISTA EXCHANGE GREEN",
        "DESCRIPTION": "SW12J94X000",
        "POSTCODE": "138617",
        "ICON_NAME": "supermarketlogo.jpg",
        "BLK_HOUSE": "1",
        "UNIT_NO": "28",
        "LatLng": "1.30684882667818,103.788214538525",
        "NAME": "TANESEI TRADING PTE. LTD."
    },
    {
        "STR_NAME": "GHIM MOH LINK",
        "DESCRIPTION": "SW12M64L000",
        "POSTCODE": "270025",
        "ICON_NAME": "supermarketlogo.jpg",
        "BLK_HOUSE": "25",
        "UNIT_NO": "11",
        "LatLng": "1.30811886968959,103.786049389035",
        "NAME": "SHENG SIONG SUPERMARKET PTE LTD"
    },
    {
        "STR_NAME": "HOLLAND AVENUE",
        "DESCRIPTION": "W02066L000",
        "POSTCODE": "278967",
        "ICON_NAME": "supermarketlogo.jpg",
        "BLK_HOUSE": "211",
        "UNIT_NO": "5",
        "LatLng": "1.31025542171459,103.795350440968",
        "NAME": "COLD STORAGE SINGAPORE (1983) PTE LTD"
    },
    {
        "STR_NAME": "JALAN BERSEH",
        "DESCRIPTION": "E02140N000",
        "POSTCODE": "209037",
        "ICON_NAME": "supermarketlogo.jpg",
        "BLK_HOUSE": "1",
        "UNIT_NO": "2",
        "LatLng": "1.30778510070706,103.857010987509",
        "NAME": "SHENG SIONG SUPERMARKET PTE LTD"
    },
    {
        "STR_NAME": "TANGLIN ROAD",
        "DESCRIPTION": "CE08808B000",
        "POSTCODE": "247964",
        "ICON_NAME": "supermarketlogo.jpg",
        "BLK_HOUSE": "56",
        "UNIT_NO": "2",
        "LatLng": "1.30561167116125,103.822962948156",
        "NAME": "SWISS BUTCHERY PTE LTD"
    },
    {
        "STR_NAME": "BUKIT TIMAH ROAD",
        "DESCRIPTION": "CE06464C000",
        "POSTCODE": "259760",
        "ICON_NAME": "supermarketlogo.jpg",
        "BLK_HOUSE": "501",
        "UNIT_NO": "2",
        "LatLng": "1.32257317593847,103.814245545298",
        "NAME": "COLD STORAGE SINGAPORE (1983) PTE LTD"
    },
    {
        "STR_NAME": "HOLLAND AVENUE",
        "DESCRIPTION": "CE17174A000",
        "POSTCODE": "278997",
        "ICON_NAME": "supermarketlogo.jpg",
        "BLK_HOUSE": "118",
        "UNIT_NO": "1/10",
        "LatLng": "1.31052978656723,103.796105205941",
        "NAME": "TASTE (SINGAPORE) PRIVATE LIMITED"
    },
    {
        "STR_NAME": "JALAN DUSUN",
        "DESCRIPTION": "CE17A77E000",
        "POSTCODE": "329363",
        "ICON_NAME": "supermarketlogo.jpg",
        "BLK_HOUSE": "1",
        "UNIT_NO": "9/10",
        "LatLng": "1.32696540868721,103.843674239785",
        "NAME": "CAVEMEN PTE. LTD."
    },
    {
        "STR_NAME": "ORCHARD ROAD",
        "DESCRIPTION": "CE15577J000",
        "POSTCODE": "238879",
        "ICON_NAME": "supermarketlogo.jpg",
        "BLK_HOUSE": "442",
        "UNIT_NO": "1/11",
        "LatLng": "1.30766861522346,103.828164400669",
        "NAME": "COLD STORAGE SINGAPORE (1983) PTE LTD"
    },
    {
        "STR_NAME": "ORCHARD ROAD",
        "DESCRIPTION": "W89166E000",
        "POSTCODE": "238843",
        "ICON_NAME": "supermarketlogo.jpg",
        "BLK_HOUSE": "176",
        "UNIT_NO": "9/11",
        "LatLng": "1.30197804716068,103.839758898411",
        "NAME": "COLD STORAGE SINGAPORE (1983) PTE LTD"
    },
    {
        "STR_NAME": "SINARAN DRIVE",
        "DESCRIPTION": "CE07T39B000",
        "POSTCODE": "307506",
        "ICON_NAME": "supermarketlogo.jpg",
        "BLK_HOUSE": "10",
        "UNIT_NO": "55",
        "LatLng": "1.32042967863542,103.843892126913",
        "NAME": "L M MEAT PTE. LTD."
    },
    {
        "STR_NAME": "GHIM MOH ROAD",
        "DESCRIPTION": "C79031J000",
        "POSTCODE": "270021",
        "ICON_NAME": "supermarketlogo.jpg",
        "BLK_HOUSE": "21",
        "UNIT_NO": "177",
        "LatLng": "1.31008118565207,103.788532895746",
        "NAME": "COLD STORAGE SINGAPORE (1983) PTE LTD"
    },
    {
        "STR_NAME": "MCNAIR ROAD",
        "DESCRIPTION": "CE04558K000",
        "POSTCODE": "321108",
        "ICON_NAME": "supermarketlogo.jpg",
        "BLK_HOUSE": "108",
        "UNIT_NO": "295",
        "LatLng": "1.32161904109972,103.859382727107",
        "NAME": "SHENG SIONG SUPERMARKET PTE LTD"
    },
    {
        "STR_NAME": "WHAMPOA DRIVE",
        "DESCRIPTION": "CE12695A000",
        "POSTCODE": "320074",
        "ICON_NAME": "supermarketlogo.jpg",
        "BLK_HOUSE": "74",
        "UNIT_NO": "332",
        "LatLng": "1.32471580637604,103.857752875465",
        "NAME": "HAO MART PTE. LTD."
    },
    {
        "STR_NAME": "ORCHARD ROAD",
        "DESCRIPTION": "W02078C000",
        "POSTCODE": "238868",
        "ICON_NAME": "supermarketlogo.jpg",
        "BLK_HOUSE": "350",
        "UNIT_NO": "0",
        "LatLng": "1.3058097922131,103.831507328438",
        "NAME": "ISETAN (SINGAPORE) LIMITED?"
    },
    {
        "STR_NAME": "DAWSON ROAD",
        "DESCRIPTION": "CE15J25N000",
        "POSTCODE": "141085",
        "ICON_NAME": "supermarketlogo.jpg",
        "BLK_HOUSE": "85",
        "UNIT_NO": "1",
        "LatLng": "1.29531966854901,103.809758594158",
        "NAME": "SHENG SIONG SUPERMARKET PTE LTD"
    },
    {
        "STR_NAME": "NORTH BRIDGE ROAD",
        "DESCRIPTION": "W02080P000",
        "POSTCODE": "179103",
        "ICON_NAME": "supermarketlogo.jpg",
        "BLK_HOUSE": "252",
        "UNIT_NO": "1",
        "LatLng": "1.29389358752931,103.853119912535",
        "NAME": "COLD STORAGE SINGAPORE (1983) PTE LTD"
    },
    {
        "STR_NAME": "ORCHARD ROAD",
        "DESCRIPTION": "W02071X000",
        "POSTCODE": "238873",
        "ICON_NAME": "supermarketlogo.jpg",
        "BLK_HOUSE": "391A",
        "UNIT_NO": "1",
        "LatLng": "1.30242417909428,103.83467613466",
        "NAME": "COLD STORAGE SINGAPORE (1983) PTE LTD"
    },
    {
        "STR_NAME": "THOMSON ROAD",
        "DESCRIPTION": "W02065N000",
        "POSTCODE": "307591",
        "ICON_NAME": "supermarketlogo.jpg",
        "BLK_HOUSE": "101",
        "UNIT_NO": "52",
        "LatLng": "1.31733464253519,103.843463185078",
        "NAME": "COLD STORAGE SINGAPORE (1983) PTE LTD"
    },
    {
        "STR_NAME": "BEACH ROAD",
        "DESCRIPTION": "W02081N000",
        "POSTCODE": "199588",
        "ICON_NAME": "supermarketlogo.jpg",
        "BLK_HOUSE": "5001",
        "UNIT_NO": "64",
        "LatLng": "1.30275121791614,103.865163649373",
        "NAME": "LOH NYEN YIU"
    },
    {
        "STR_NAME": "FRENCH ROAD",
        "DESCRIPTION": "CE16445A000",
        "POSTCODE": "200809",
        "ICON_NAME": "supermarketlogo.jpg",
        "BLK_HOUSE": "809",
        "UNIT_NO": "31",
        "LatLng": "1.30832700959572,103.862005875543",
        "NAME": "MAHOTA FOOD PTE. LTD."
    },
    {
        "STR_NAME": "CLAYMORE DRIVE",
        "DESCRIPTION": "W02079B000",
        "POSTCODE": "229594",
        "ICON_NAME": "supermarketlogo.jpg",
        "BLK_HOUSE": "1",
        "UNIT_NO": "41",
        "LatLng": "1.30756237263162,103.829352202761",
        "NAME": "COLD STORAGE SINGAPORE (1983) PTE LTD"
    },
    {
        "STR_NAME": "DUNEARN ROAD",
        "DESCRIPTION": "W02064P000",
        "POSTCODE": "309426",
        "ICON_NAME": "supermarketlogo.jpg",
        "BLK_HOUSE": "36A",
        "UNIT_NO": "44",
        "LatLng": "1.31617742511297,103.83781497569",
        "NAME": "COLD STORAGE SINGAPORE (1983) PTE LTD"
    }
]}